<?xml version="1.0" encoding="UTF-8"?>
<ndm xmlns:xsi="http://www.w3.org/2001/XMLSchema-instance" xsi:noNamespaceSchemaLocation="https://sanaregistry.org/r/ndmxml_unqualified/ndmxml-2.0.0-master-2.0.xsd">
<omm id="CCSDS_OMM_VERS" version="2.0">
<header><CREATION_DATE/><ORIGINATOR/></header><body><segment><metadata><OBJECT_NAME>KUIPER-00027</OBJECT_NAME><OBJECT_ID>2025-088S</OBJECT_ID><CENTER_NAME>EARTH</CENTER_NAME><REF_FRAME>TEME</REF_FRAME><TIME_SYSTEM>UTC</TIME_SYSTEM><MEAN_ELEMENT_THEORY>SGP4</MEAN_ELEMENT_THEORY></metadata><data><meanElements><EPOCH>2025-11-13T20:06:04.199904</EPOCH><MEAN_MOTION>14.79729924</MEAN_MOTION><ECCENTRICITY>.000539</ECCENTRICITY><INCLINATION>51.9004</INCLINATION><RA_OF_ASC_NODE>247.7755</RA_OF_ASC_NODE><ARG_OF_PERICENTER>129.4941</ARG_OF_PERICENTER><MEAN_ANOMALY>230.6498</MEAN_ANOMALY></meanElements><tleParameters><EPHEMERIS_TYPE>0</EPHEMERIS_TYPE><CLASSIFICATION_TYPE>U</CLASSIFICATION_TYPE><NORAD_CAT_ID>63740</NORAD_CAT_ID><ELEMENT_SET_NO>999</ELEMENT_SET_NO><REV_AT_EPOCH>3046</REV_AT_EPOCH><BSTAR>.11239E-2</BSTAR><MEAN_MOTION_DOT>.8317E-4</MEAN_MOTION_DOT><MEAN_MOTION_DDOT>0</MEAN_MOTION_DDOT></tleParameters></data></segment></body></omm>
<omm id="CCSDS_OMM_VERS" version="2.0">
<header><CREATION_DATE/><ORIGINATOR/></header><body><segment><metadata><OBJECT_NAME>KUIPER-00028</OBJECT_NAME><OBJECT_ID>2025-088T</OBJECT_ID><CENTER_NAME>EARTH</CENTER_NAME><REF_FRAME>TEME</REF_FRAME><TIME_SYSTEM>UTC</TIME_SYSTEM><MEAN_ELEMENT_THEORY>SGP4</MEAN_ELEMENT_THEORY></metadata><data><meanElements><EPOCH>2025-11-13T18:53:54.688992</EPOCH><MEAN_MOTION>14.79491434</MEAN_MOTION><ECCENTRICITY>.0004514</ECCENTRICITY><INCLINATION>51.8996</INCLINATION><RA_OF_ASC_NODE>245.9789</RA_OF_ASC_NODE><ARG_OF_PERICENTER>146.9904</ARG_OF_PERICENTER><MEAN_ANOMALY>213.1340</MEAN_ANOMALY></meanElements><tleParameters><EPHEMERIS_TYPE>0</EPHEMERIS_TYPE><CLASSIFICATION_TYPE>U</CLASSIFICATION_TYPE><NORAD_CAT_ID>63741</NORAD_CAT_ID><ELEMENT_SET_NO>999</ELEMENT_SET_NO><REV_AT_EPOCH>3089</REV_AT_EPOCH><BSTAR>.11849E-2</BSTAR><MEAN_MOTION_DOT>.873E-4</MEAN_MOTION_DOT><MEAN_MOTION_DDOT>0</MEAN_MOTION_DDOT></tleParameters></data></segment></body></omm>
<omm id="CCSDS_OMM_VERS" version="2.0">
<header><CREATION_DATE/><ORIGINATOR/></header><body><segment><metadata><OBJECT_NAME>KUIPER-00029</OBJECT_NAME><OBJECT_ID>2025-088U</OBJECT_ID><CENTER_NAME>EARTH</CENTER_NAME><REF_FRAME>TEME</REF_FRAME><TIME_SYSTEM>UTC</TIME_SYSTEM><MEAN_ELEMENT_THEORY>SGP4</MEAN_ELEMENT_THEORY></metadata><data><meanElements><EPOCH>2025-11-13T19:46:22.607328</EPOCH><MEAN_MOTION>14.80125432</MEAN_MOTION><ECCENTRICITY>.0009894</ECCENTRICITY><INCLINATION>51.9024</INCLINATION><RA_OF_ASC_NODE>243.6937</RA_OF_ASC_NODE><ARG_OF_PERICENTER>100.5216</ARG_OF_PERICENTER><MEAN_ANOMALY>259.6861</MEAN_ANOMALY></meanElements><tleParameters><EPHEMERIS_TYPE>0</EPHEMERIS_TYPE><CLASSIFICATION_TYPE>U</CLASSIFICATION_TYPE><NORAD_CAT_ID>63742</NORAD_CAT_ID><ELEMENT_SET_NO>999</ELEMENT_SET_NO><REV_AT_EPOCH>3045</REV_AT_EPOCH><BSTAR>.11297E-2</BSTAR><MEAN_MOTION_DOT>.8445E-4</MEAN_MOTION_DOT><MEAN_MOTION_DDOT>0</MEAN_MOTION_DDOT></tleParameters></data></segment></body></omm>
<omm id="CCSDS_OMM_VERS" version="2.0">
<header><CREATION_DATE/><ORIGINATOR/></header><body><segment><metadata><OBJECT_NAME>KUIPER-00030</OBJECT_NAME><OBJECT_ID>2025-088V</OBJECT_ID><CENTER_NAME>EARTH</CENTER_NAME><REF_FRAME>TEME</REF_FRAME><TIME_SYSTEM>UTC</TIME_SYSTEM><MEAN_ELEMENT_THEORY>SGP4</MEAN_ELEMENT_THEORY></metadata><data><meanElements><EPOCH>2025-11-13T19:55:53.283648</EPOCH><MEAN_MOTION>14.79996087</MEAN_MOTION><ECCENTRICITY>.0015171</ECCENTRICITY><INCLINATION>51.9004</INCLINATION><RA_OF_ASC_NODE>262.8667</RA_OF_ASC_NODE><ARG_OF_PERICENTER>47.9921</ARG_OF_PERICENTER><MEAN_ANOMALY>312.2330</MEAN_ANOMALY></meanElements><tleParameters><EPHEMERIS_TYPE>0</EPHEMERIS_TYPE><CLASSIFICATION_TYPE>U</CLASSIFICATION_TYPE><NORAD_CAT_ID>63743</NORAD_CAT_ID><ELEMENT_SET_NO>999</ELEMENT_SET_NO><REV_AT_EPOCH>3047</REV_AT_EPOCH><BSTAR>.22096E-2</BSTAR><MEAN_MOTION_DOT>.16719E-3</MEAN_MOTION_DOT><MEAN_MOTION_DDOT>0</MEAN_MOTION_DDOT></tleParameters></data></segment></body></omm>
<omm id="CCSDS_OMM_VERS" version="2.0">
<header><CREATION_DATE/><ORIGINATOR/></header><body><segment><metadata><OBJECT_NAME>KUIPER-00031</OBJECT_NAME><OBJECT_ID>2025-088W</OBJECT_ID><CENTER_NAME>EARTH</CENTER_NAME><REF_FRAME>TEME</REF_FRAME><TIME_SYSTEM>UTC</TIME_SYSTEM><MEAN_ELEMENT_THEORY>SGP4</MEAN_ELEMENT_THEORY></metadata><data><meanElements><EPOCH>2025-11-13T20:15:22.300704</EPOCH><MEAN_MOTION>14.79994180</MEAN_MOTION><ECCENTRICITY>.0005114</ECCENTRICITY><INCLINATION>51.8992</INCLINATION><RA_OF_ASC_NODE>248.8691</RA_OF_ASC_NODE><ARG_OF_PERICENTER>86.7085</ARG_OF_PERICENTER><MEAN_ANOMALY>273.4462</MEAN_ANOMALY></meanElements><tleParameters><EPHEMERIS_TYPE>0</EPHEMERIS_TYPE><CLASSIFICATION_TYPE>U</CLASSIFICATION_TYPE><NORAD_CAT_ID>63744</NORAD_CAT_ID><ELEMENT_SET_NO>999</ELEMENT_SET_NO><REV_AT_EPOCH>3038</REV_AT_EPOCH><BSTAR>-.13286E-2</BSTAR><MEAN_MOTION_DOT>-.10353E-3</MEAN_MOTION_DOT><MEAN_MOTION_DDOT>0</MEAN_MOTION_DDOT></tleParameters></data></segment></body></omm>
<omm id="CCSDS_OMM_VERS" version="2.0">
<header><CREATION_DATE/><ORIGINATOR/></header><body><segment><metadata><OBJECT_NAME>KUIPER-00032</OBJECT_NAME><OBJECT_ID>2025-088X</OBJECT_ID><CENTER_NAME>EARTH</CENTER_NAME><REF_FRAME>TEME</REF_FRAME><TIME_SYSTEM>UTC</TIME_SYSTEM><MEAN_ELEMENT_THEORY>SGP4</MEAN_ELEMENT_THEORY></metadata><data><meanElements><EPOCH>2025-11-13T18:12:35.275104</EPOCH><MEAN_MOTION>15.32499441</MEAN_MOTION><ECCENTRICITY>.0005878</ECCENTRICITY><INCLINATION>51.8705</INCLINATION><RA_OF_ASC_NODE>222.5692</RA_OF_ASC_NODE><ARG_OF_PERICENTER>83.6255</ARG_OF_PERICENTER><MEAN_ANOMALY>276.5399</MEAN_ANOMALY></meanElements><tleParameters><EPHEMERIS_TYPE>0</EPHEMERIS_TYPE><CLASSIFICATION_TYPE>U</CLASSIFICATION_TYPE><NORAD_CAT_ID>63745</NORAD_CAT_ID><ELEMENT_SET_NO>999</ELEMENT_SET_NO><REV_AT_EPOCH>3174</REV_AT_EPOCH><BSTAR>.10599E-2</BSTAR><MEAN_MOTION_DOT>.33551E-3</MEAN_MOTION_DOT><MEAN_MOTION_DDOT>0</MEAN_MOTION_DDOT></tleParameters></data></segment></body></omm>
<omm id="CCSDS_OMM_VERS" version="2.0">
<header><CREATION_DATE/><ORIGINATOR/></header><body><segment><metadata><OBJECT_NAME>KUIPER-00033</OBJECT_NAME><OBJECT_ID>2025-088Y</OBJECT_ID><CENTER_NAME>EARTH</CENTER_NAME><REF_FRAME>TEME</REF_FRAME><TIME_SYSTEM>UTC</TIME_SYSTEM><MEAN_ELEMENT_THEORY>SGP4</MEAN_ELEMENT_THEORY></metadata><data><meanElements><EPOCH>2025-11-13T04:54:55.920096</EPOCH><MEAN_MOTION>14.79980080</MEAN_MOTION><ECCENTRICITY>.00042207</ECCENTRICITY><INCLINATION>51.9011</INCLINATION><RA_OF_ASC_NODE>281.6897</RA_OF_ASC_NODE><ARG_OF_PERICENTER>135.6821</ARG_OF_PERICENTER><MEAN_ANOMALY>224.4479</MEAN_ANOMALY></meanElements><tleParameters><EPHEMERIS_TYPE>0</EPHEMERIS_TYPE><CLASSIFICATION_TYPE>U</CLASSIFICATION_TYPE><NORAD_CAT_ID>63746</NORAD_CAT_ID><ELEMENT_SET_NO>999</ELEMENT_SET_NO><REV_AT_EPOCH>3035</REV_AT_EPOCH><BSTAR>.10928341E-2</BSTAR><MEAN_MOTION_DOT>.8129E-4</MEAN_MOTION_DOT><MEAN_MOTION_DDOT>0</MEAN_MOTION_DDOT></tleParameters></data></segment></body></omm>
<omm id="CCSDS_OMM_VERS" version="2.0">
<header><CREATION_DATE/><ORIGINATOR/></header><body><segment><metadata><OBJECT_NAME>KUIPER-00034</OBJECT_NAME><OBJECT_ID>2025-088Z</OBJECT_ID><CENTER_NAME>EARTH</CENTER_NAME><REF_FRAME>TEME</REF_FRAME><TIME_SYSTEM>UTC</TIME_SYSTEM><MEAN_ELEMENT_THEORY>SGP4</MEAN_ELEMENT_THEORY></metadata><data><meanElements><EPOCH>2025-11-13T19:56:06.095040</EPOCH><MEAN_MOTION>14.80152860</MEAN_MOTION><ECCENTRICITY>.000305</ECCENTRICITY><INCLINATION>51.9007</INCLINATION><RA_OF_ASC_NODE>241.2035</RA_OF_ASC_NODE><ARG_OF_PERICENTER>79.4114</ARG_OF_PERICENTER><MEAN_ANOMALY>280.7192</MEAN_ANOMALY></meanElements><tleParameters><EPHEMERIS_TYPE>0</EPHEMERIS_TYPE><CLASSIFICATION_TYPE>U</CLASSIFICATION_TYPE><NORAD_CAT_ID>63747</NORAD_CAT_ID><ELEMENT_SET_NO>999</ELEMENT_SET_NO><REV_AT_EPOCH>3065</REV_AT_EPOCH><BSTAR>.1199E-2</BSTAR><MEAN_MOTION_DOT>.8979E-4</MEAN_MOTION_DOT><MEAN_MOTION_DDOT>0</MEAN_MOTION_DDOT></tleParameters></data></segment></body></omm>

</ndm>
