KUIPER-00027            
1 63740U 25088S   25317.83754861  .00008317  00000+0  11239-2 0  9999
2 63740  51.9004 247.7755 0005390 129.4941 230.6498 14.79729924 30464
KUIPER-00028            
1 63741U 25088T   25317.78743853  .00008730  00000+0  11849-2 0  9999
2 63741  51.8996 245.9789 0004514 146.9904 213.1340 14.79491434 30892
KUIPER-00029            
1 63742U 25088U   25317.82387277  .00008445  00000+0  11297-2 0  9999
2 63742  51.9024 243.6937 0009894 100.5216 259.6861 14.80125432 30453
KUIPER-00030            
1 63743U 25088V   25317.83047782  .00016719  00000+0  22096-2 0  9997
2 63743  51.9004 262.8667 0015171  47.9921 312.2330 14.79996087 30476
KUIPER-00031            
1 63744U 25088W   25317.84400811 -.00010353  00000+0 -13286-2 0  9996
2 63744  51.8992 248.8691 0005114  86.7085 273.4462 14.79994180 30387
KUIPER-00032            
1 63745U 25088X   25317.75874161  .00033551  00000+0  10599-2 0  9997
2 63745  51.8705 222.5692 0005878  83.6255 276.5399 15.32499441 31746
KUIPER-00033            
1 63746U 25088Y   25317.20481389  .00008129  00000+0  10928-2 0  9993
2 63746  51.9011 281.6897 0004220 135.6821 224.4479 14.79980080 30359
KUIPER-00034            
1 63747U 25088Z   25317.83062610  .00008979  00000+0  11990-2 0  9998
2 63747  51.9007 241.2035 0003050  79.4114 280.7192 14.80152860 30650
